[Satellite]
VERSION=1.1
NAME=CUBESAT XI-IV (CO-57)
NICKNAME=CO-57
TLE1=1 27848U 03031J   25178.48374736  .00000175  00000-0  96500-4 0  9998
TLE2=2 27848  98.6783 186.5181 0010163 146.8533 213.3284 14.23341180140918
STATUS=0
